{
  "type": "FeatureCollection",
  "features": [
    {
      "type": "Feature",
      "properties": {
        "norad_id": 34350,
        "name": "IRIDIUM 33 DEB",
        "group": "iridium-33-debris",
        "lat": 70.63488187524986,
        "lon": 15.287206974633504,
        "alt_km": 730.7658363086075,
        "timestamp": "2025-12-08T05:48:09.418716+00:00",
        "meta_object_name": "IRIDIUM 33 DEB",
        "meta_object_id": "1997-051ES",
        "meta_epoch": "2025-12-07T07:57:58.605120",
        "meta_mean_motion": 14.45368778,
        "meta_eccentricity": 0.00222637,
        "meta_inclination": 86.328,
        "meta_ra_of_asc_node": 5.154,
        "meta_arg_of_pericenter": 152.1514,
        "meta_mean_anomaly": 227.8879,
        "meta_ephemeris_type": 0,
        "meta_classification_type": "U",
        "meta_norad_cat_id": 34350,
        "meta_element_set_no": 999,
        "meta_rev_at_epoch": 88215,
        "meta_bstar": 0.00056959331,
        "meta_mean_motion_dot": 2.027e-05,
        "meta_mean_motion_ddot": 0,
        "tle_line1": "1 34350U 97051ES  25341.33192830  .00002027  00000+0  56959-3 0  9998",
        "tle_line2": "2 34350  86.3280   5.1540 0022263 152.1514 227.8879 14.45368778882153"
      },
      "geometry": {
        "type": "Point",
        "coordinates": [
          15.287206974633504,
          70.63488187524986
        ]
      }
    },
    {
      "type": "Feature",
      "properties": {
        "norad_id": 34366,
        "name": "IRIDIUM 33 DEB",
        "group": "iridium-33-debris",
        "lat": -79.05257277110184,
        "lon": -109.56911081194873,
        "alt_km": 724.2442899177368,
        "timestamp": "2025-12-08T05:48:09.418726+00:00",
        "meta_object_name": "IRIDIUM 33 DEB",
        "meta_object_id": "1997-051FJ",
        "meta_epoch": "2025-12-07T22:49:04.445760",
        "meta_mean_motion": 14.53992802,
        "meta_eccentricity": 0.00220861,
        "meta_inclination": 86.3696,
        "meta_ra_of_asc_node": 51.396,
        "meta_arg_of_pericenter": 155.0204,
        "meta_mean_anomaly": 21.9973,
        "meta_ephemeris_type": 0,
        "meta_classification_type": "U",
        "meta_norad_cat_id": 34366,
        "meta_element_set_no": 999,
        "meta_rev_at_epoch": 88112,
        "meta_bstar": 0.0015640864,
        "meta_mean_motion_dot": 6.633e-05,
        "meta_mean_motion_ddot": 0,
        "tle_line1": "1 34366U 97051FJ  25341.95074590  .00006633  00000+0  15641-2 0  9994",
        "tle_line2": "2 34366  86.3696  51.3960 0022086 155.0204  21.9973 14.53992802881125"
      },
      "geometry": {
        "type": "Point",
        "coordinates": [
          -109.56911081194873,
          -79.05257277110184
        ]
      }
    },
    {
      "type": "Feature",
      "properties": {
        "norad_id": 34375,
        "name": "IRIDIUM 33 DEB",
        "group": "iridium-33-debris",
        "lat": 35.981527501222885,
        "lon": -172.89414533879082,
        "alt_km": 847.9284062960578,
        "timestamp": "2025-12-08T05:48:09.418737+00:00",
        "meta_object_name": "IRIDIUM 33 DEB",
        "meta_object_id": "1997-051FT",
        "meta_epoch": "2025-12-07T19:32:32.493408",
        "meta_mean_motion": 14.17979319,
        "meta_eccentricity": 0.01029361,
        "meta_inclination": 86.4328,
        "meta_ra_of_asc_node": 184.6823,
        "meta_arg_of_pericenter": 142.2394,
        "meta_mean_anomaly": 234.0896,
        "meta_ephemeris_type": 0,
        "meta_classification_type": "U",
        "meta_norad_cat_id": 34375,
        "meta_element_set_no": 999,
        "meta_rev_at_epoch": 86642,
        "meta_bstar": 0.00068270447,
        "meta_mean_motion_dot": 1.491e-05,
        "meta_mean_motion_ddot": 0,
        "tle_line1": "1 34375U 97051FT  25341.81426497  .00001491  00000+0  68270-3 0  9990",
        "tle_line2": "2 34375  86.4328 184.6823 0102936 142.2394 234.0896 14.17979319866422"
      },
      "geometry": {
        "type": "Point",
        "coordinates": [
          -172.89414533879082,
          35.981527501222885
        ]
      }
    },
    {
      "type": "Feature",
      "properties": {
        "norad_id": 34376,
        "name": "IRIDIUM 33 DEB",
        "group": "iridium-33-debris",
        "lat": 49.18292225274259,
        "lon": 12.860526673860747,
        "alt_km": 693.5171290735043,
        "timestamp": "2025-12-08T05:48:09.418747+00:00",
        "meta_object_name": "IRIDIUM 33 DEB",
        "meta_object_id": "1997-051FU",
        "meta_epoch": "2025-12-07T19:43:26.419584",
        "meta_mean_motion": 14.62463862,
        "meta_eccentricity": 0.00266038,
        "meta_inclination": 86.2983,
        "meta_ra_of_asc_node": 8.7505,
        "meta_arg_of_pericenter": 183.3452,
        "meta_mean_anomaly": 176.7586,
        "meta_ephemeris_type": 0,
        "meta_classification_type": "U",
        "meta_norad_cat_id": 34376,
        "meta_element_set_no": 999,
        "meta_rev_at_epoch": 87935,
        "meta_bstar": 0.0023918426,
        "meta_mean_motion_dot": 0.00012205,
        "meta_mean_motion_ddot": 0,
        "tle_line1": "1 34376U 97051FU  25341.82183356  .00012205  00000+0  23918-2 0  9990",
        "tle_line2": "2 34376  86.2983   8.7505 0026603 183.3452 176.7586 14.62463862879353"
      },
      "geometry": {
        "type": "Point",
        "coordinates": [
          12.860526673860747,
          49.18292225274259
        ]
      }
    },
    {
      "type": "Feature",
      "properties": {
        "norad_id": 34486,
        "name": "IRIDIUM 33 DEB",
        "group": "iridium-33-debris",
        "lat": 86.33303023402213,
        "lon": 114.27488561668406,
        "alt_km": 565.9767332037572,
        "timestamp": "2025-12-08T05:48:09.418757+00:00",
        "meta_object_name": "IRIDIUM 33 DEB",
        "meta_object_id": "1997-051GB",
        "meta_epoch": "2025-12-07T20:32:12.361632",
        "meta_mean_motion": 14.95471709,
        "meta_eccentricity": 0.00131901,
        "meta_inclination": 86.393,
        "meta_ra_of_asc_node": 14.2783,
        "meta_arg_of_pericenter": 128.7579,
        "meta_mean_anomaly": 44.8246,
        "meta_ephemeris_type": 0,
        "meta_classification_type": "U",
        "meta_norad_cat_id": 34486,
        "meta_element_set_no": 999,
        "meta_rev_at_epoch": 88913,
        "meta_bstar": 0.003459749,
        "meta_mean_motion_dot": 0.00038525,
        "meta_mean_motion_ddot": 0,
        "tle_line1": "1 34486U 97051GB  25341.85569863  .00038525  00000+0  34597-2 0  9994",
        "tle_line2": "2 34486  86.3930  14.2783 0013190 128.7579  44.8246 14.95471709889138"
      },
      "geometry": {
        "type": "Point",
        "coordinates": [
          114.27488561668406,
          86.33303023402213
        ]
      }
    },
    {
      "type": "Feature",
      "properties": {
        "norad_id": 34487,
        "name": "IRIDIUM 33 DEB",
        "group": "iridium-33-debris",
        "lat": -53.98616344978178,
        "lon": -160.6398298172506,
        "alt_km": 755.6004846857222,
        "timestamp": "2025-12-08T05:48:09.418767+00:00",
        "meta_object_name": "IRIDIUM 33 DEB",
        "meta_object_id": "1997-051GC",
        "meta_epoch": "2025-12-07T08:51:00.080352",
        "meta_mean_motion": 14.43206052,
        "meta_eccentricity": 0.0032325,
        "meta_inclination": 86.344,
        "meta_ra_of_asc_node": 14.6897,
        "meta_arg_of_pericenter": 145.3216,
        "meta_mean_anomaly": 235.4285,
        "meta_ephemeris_type": 0,
        "meta_classification_type": "U",
        "meta_norad_cat_id": 34487,
        "meta_element_set_no": 999,
        "meta_rev_at_epoch": 88171,
        "meta_bstar": 0.00034860928,
        "meta_mean_motion_dot": 1.199e-05,
        "meta_mean_motion_ddot": 0,
        "tle_line1": "1 34487U 97051GC  25341.36875093  .00001199  00000+0  34861-3 0  9998",
        "tle_line2": "2 34487  86.3440  14.6897 0032325 145.3216 235.4285 14.43206052881716"
      },
      "geometry": {
        "type": "Point",
        "coordinates": [
          -160.6398298172506,
          -53.98616344978178
        ]
      }
    },
    {
      "type": "Feature",
      "properties": {
        "norad_id": 34488,
        "name": "IRIDIUM 33 DEB",
        "group": "iridium-33-debris",
        "lat": -80.81397658919349,
        "lon": 151.4570625394909,
        "alt_km": 498.7808739967113,
        "timestamp": "2025-12-08T05:48:09.418778+00:00",
        "meta_object_name": "IRIDIUM 33 DEB",
        "meta_object_id": "1997-051GD",
        "meta_epoch": "2025-12-07T20:48:04.872384",
        "meta_mean_motion": 15.27700867,
        "meta_eccentricity": 0.00145083,
        "meta_inclination": 86.3249,
        "meta_ra_of_asc_node": 308.2225,
        "meta_arg_of_pericenter": 58.5485,
        "meta_mean_anomaly": 301.7178,
        "meta_ephemeris_type": 0,
        "meta_classification_type": "U",
        "meta_norad_cat_id": 34488,
        "meta_element_set_no": 999,
        "meta_rev_at_epoch": 89165,
        "meta_bstar": 0.0065853927,
        "meta_mean_motion_dot": 0.00182761,
        "meta_mean_motion_ddot": 0,
        "tle_line1": "1 34488U 97051GD  25341.86672306  .00182761  00000+0  65854-2 0  9996",
        "tle_line2": "2 34488  86.3249 308.2225 0014508  58.5485 301.7178 15.27700867891655"
      },
      "geometry": {
        "type": "Point",
        "coordinates": [
          151.4570625394909,
          -80.81397658919349
        ]
      }
    }
  ]
}